start=new Date('2023-04-12T00:00:00.000Z').valueOf();
sats=[{"PERIOD":"95.590","ECCENTRICITY":"0.00009090","LAUNCH_DATE":"2020-06-13","DECAY_DATE":null,"SITE":"AFETR","TLE_LINE1":"1 45754U 20038AA  23101.70310062  .00023592  00000-0  15958-2 0  9995","FILE":"3885919","MEAN_MOTION":"15.06436908","CLASSIFICATION_TYPE":"U","EPOCH":"2023-04-11T16:52:27.893568","RA_OF_ASC_NODE":"308.5481","TIME_SYSTEM":"UTC","MEAN_ANOMALY":"275.1267","RCS_SIZE":"LARGE","ELEMENT_SET_NO":"999","INCLINATION":"53.0530","PERIAPSIS":"546.471","TLE_LINE2":"2 45754  53.0530 308.5481 0000909  84.9826 275.1267 15.06436908156269","COUNTRY_CODE":"US","REF_FRAME":"TEME","OBJECT_NAME":"STARLINK-1477","EPHEMERIS_TYPE":"0","MEAN_ELEMENT_THEORY":"SGP4","NORAD_CAT_ID":"45754","REV_AT_EPOCH":"15626","GP_ID":"229941990","ARG_OF_PERICENTER":"84.9826","OBJECT_ID":"2020-038AA","BSTAR":"0.00159580000000","CENTER_NAME":"EARTH","MEAN_MOTION_DOT":"0.00023592","SEMIMAJOR_AXIS":"6925.235","MEAN_MOTION_DDOT":"0.0000000000000","OBJECT_TYPE":"PAYLOAD","APOAPSIS":"547.730"},{"SEMIMAJOR_AXIS":"6925.221","MEAN_MOTION_DOT":"0.00017890","OBJECT_TYPE":"PAYLOAD","APOAPSIS":"547.838","MEAN_MOTION_DDOT":"0.0000000000000","REV_AT_EPOCH":"15627","NORAD_CAT_ID":"45755","MEAN_ELEMENT_THEORY":"SGP4","EPHEMERIS_TYPE":"0","CENTER_NAME":"EARTH","BSTAR":"0.00121550000000","OBJECT_ID":"2020-038AB","ARG_OF_PERICENTER":"92.3598","GP_ID":"229942240","ELEMENT_SET_NO":"999","INCLINATION":"53.0540","RCS_SIZE":"LARGE","EPOCH":"2023-04-11T20:30:04.504320","MEAN_ANOMALY":"267.7516","TIME_SYSTEM":"UTC","RA_OF_ASC_NODE":"307.8747","REF_FRAME":"TEME","OBJECT_NAME":"STARLINK-1478","COUNTRY_CODE":"US","TLE_LINE2":"2 45755  53.0540 307.8747 0001087  92.3598 267.7516 15.06441717156274","PERIAPSIS":"546.333","ECCENTRICITY":"0.00010870","DECAY_DATE":null,"LAUNCH_DATE":"2020-06-13","PERIOD":"95.589","CLASSIFICATION_TYPE":"U","TLE_LINE1":"1 45755U 20038AB  23101.85421880  .00017890  00000-0  12155-2 0  9993","MEAN_MOTION":"15.06441717","FILE":"3885919","SITE":"AFETR"},{"SITE":"AFETR","FILE":"3885919","MEAN_MOTION":"15.06441777","TLE_LINE1":"1 45756U 20038AC  23101.84958824  .00017680  00000-0  12015-2 0  9998","CLASSIFICATION_TYPE":"U","PERIOD":"95.589","LAUNCH_DATE":"2020-06-13","DECAY_DATE":null,"ECCENTRICITY":"0.00005870","PERIAPSIS":"546.679","TLE_LINE2":"2 45756  53.0531 307.8806 0000587  81.2774 278.8282 15.06441777156277","COUNTRY_CODE":"US","OBJECT_NAME":"STARLINK-1484","REF_FRAME":"TEME","RA_OF_ASC_NODE":"307.8806","MEAN_ANOMALY":"278.8282","TIME_SYSTEM":"UTC","EPOCH":"2023-04-11T20:23:24.423936","RCS_SIZE":"LARGE","INCLINATION":"53.0531","ELEMENT_SET_NO":"999","GP_ID":"229942492","ARG_OF_PERICENTER":"81.2774","OBJECT_ID":"2020-038AC","BSTAR":"0.00120150000000","CENTER_NAME":"EARTH","MEAN_ELEMENT_THEORY":"SGP4","EPHEMERIS_TYPE":"0","NORAD_CAT_ID":"45756","REV_AT_EPOCH":"15627","MEAN_MOTION_DDOT":"0.0000000000000","APOAPSIS":"547.492","OBJECT_TYPE":"PAYLOAD","MEAN_MOTION_DOT":"0.00017680","SEMIMAJOR_AXIS":"6925.221"},{"OBJECT_NAME":"STARLINK-1486","REF_FRAME":"TEME","PERIAPSIS":"526.162","TLE_LINE2":"2 45757  53.0535 306.6556 0001356 214.7870 145.3033 15.12986963156276","COUNTRY_CODE":"US","RCS_SIZE":"LARGE","INCLINATION":"53.0535","ELEMENT_SET_NO":"999","TIME_SYSTEM":"UTC","RA_OF_ASC_NODE":"306.6556","MEAN_ANOMALY":"145.3033","EPOCH":"2023-04-11T16:12:32.203872","FILE":"3885919","MEAN_MOTION":"15.12986963","TLE_LINE1":"1 45757U 20038AD  23101.67537273  .00029222  00000-0  16469-2 0  9993","CLASSIFICATION_TYPE":"U","SITE":"AFETR","DECAY_DATE":null,"LAUNCH_DATE":"2020-06-13","ECCENTRICITY":"0.00013560","PERIOD":"95.176","APOAPSIS":"528.035","OBJECT_TYPE":"PAYLOAD","MEAN_MOTION_DDOT":"0.0000000000000","SEMIMAJOR_AXIS":"6905.234","MEAN_MOTION_DOT":"0.00029222","BSTAR":"0.00164690000000","CENTER_NAME":"EARTH","GP_ID":"229942726","ARG_OF_PERICENTER":"214.7870","OBJECT_ID":"2020-038AD","REV_AT_EPOCH":"15627","EPHEMERIS_TYPE":"0","MEAN_ELEMENT_THEORY":"SGP4","NORAD_CAT_ID":"45757"},{"REF_FRAME":"TEME","OBJECT_NAME":"STARLINK-1487","PERIAPSIS":"524.963","TLE_LINE2":"2 45758  53.0551 306.1725 0000149 235.4097 124.6881 15.13655333156285","COUNTRY_CODE":"US","RCS_SIZE":"LARGE","ELEMENT_SET_NO":"999","INCLINATION":"53.0551","EPOCH":"2023-04-11T16:43:28.221024","TIME_SYSTEM":"UTC","MEAN_ANOMALY":"124.6881","RA_OF_ASC_NODE":"306.1725","TLE_LINE1":"1 45758U 20038AE  23101.69685441  .00030927  00000-0  17094-2 0  9996","FILE":"3885919","MEAN_MOTION":"15.13655333","CLASSIFICATION_TYPE":"U","SITE":"AFETR","ECCENTRICITY":"0.00001490","DECAY_DATE":null,"LAUNCH_DATE":"2020-06-13","PERIOD":"95.134","OBJECT_TYPE":"PAYLOAD","APOAPSIS":"525.169","MEAN_MOTION_DDOT":"0.0000000000000","SEMIMAJOR_AXIS":"6903.201","MEAN_MOTION_DOT":"0.00030927","BSTAR":"0.00170940000000","CENTER_NAME":"EARTH","GP_ID":"229941492","ARG_OF_PERICENTER":"235.4097","OBJECT_ID":"2020-038AE","REV_AT_EPOCH":"15628","EPHEMERIS_TYPE":"0","MEAN_ELEMENT_THEORY":"SGP4","NORAD_CAT_ID":"45758"},{"DECAY_DATE":null,"LAUNCH_DATE":"2020-06-13","ECCENTRICITY":"0.00009290","PERIOD":"95.590","CLASSIFICATION_TYPE":"U","MEAN_MOTION":"15.06432609","FILE":"3885919","TLE_LINE1":"1 45759U 20038AF  23101.71047599  .00018434  00000-0  12521-2 0  9995","SITE":"AFETR","INCLINATION":"53.0537","ELEMENT_SET_NO":"999","RCS_SIZE":"LARGE","RA_OF_ASC_NODE":"308.5125","TIME_SYSTEM":"UTC","MEAN_ANOMALY":"279.7550","EPOCH":"2023-04-11T17:03:05.125536","OBJECT_NAME":"STARLINK-1493","REF_FRAME":"TEME","TLE_LINE2":"2 45759  53.0537 308.5125 0000929  80.3544 279.7550 15.06432609156253","COUNTRY_CODE":"US","PERIAPSIS":"546.470","REV_AT_EPOCH":"15625","NORAD_CAT_ID":"45759","MEAN_ELEMENT_THEORY":"SGP4","EPHEMERIS_TYPE":"0","CENTER_NAME":"EARTH","BSTAR":"0.00125210000000","OBJECT_ID":"2020-038AF","ARG_OF_PERICENTER":"80.3544","GP_ID":"229941742","SEMIMAJOR_AXIS":"6925.249","MEAN_MOTION_DOT":"0.00018434","APOAPSIS":"547.757","OBJECT_TYPE":"PAYLOAD","MEAN_MOTION_DDOT":"0.0000000000000"},{"MEAN_ANOMALY":"268.5517","RA_OF_ASC_NODE":"307.9076","TIME_SYSTEM":"UTC","EPOCH":"2023-04-11T20:19:27.400224","RCS_SIZE":"LARGE","INCLINATION":"53.0540","ELEMENT_SET_NO":"999","PERIAPSIS":"546.337","TLE_LINE2":"2 45760  53.0540 307.9076 0001076  91.5595 268.5517 15.06443030156283","COUNTRY_CODE":"US","OBJECT_NAME":"STARLINK-1494","REF_FRAME":"TEME","PERIOD":"95.589","DECAY_DATE":null,"LAUNCH_DATE":"2020-06-13","ECCENTRICITY":"0.00010760","SITE":"AFETR","FILE":"3885919","MEAN_MOTION":"15.06443030","TLE_LINE1":"1 45760U 20038AG  23101.84684491  .00016734  00000-0  11383-2 0  9995","CLASSIFICATION_TYPE":"U","MEAN_MOTION_DOT":"0.00016734","SEMIMAJOR_AXIS":"6925.217","MEAN_MOTION_DDOT":"0.0000000000000","APOAPSIS":"547.827","OBJECT_TYPE":"PAYLOAD","MEAN_ELEMENT_THEORY":"SGP4","EPHEMERIS_TYPE":"0","NORAD_CAT_ID":"45760","REV_AT_EPOCH":"15628","GP_ID":"229942992","ARG_OF_PERICENTER":"91.5595","OBJECT_ID":"2020-038AG","BSTAR":"0.00113830000000","CENTER_NAME":"EARTH"},{"RCS_SIZE":"LARGE","INCLINATION":"53.0573","ELEMENT_SET_NO":"999","TIME_SYSTEM":"UTC","RA_OF_ASC_NODE":"294.5707","MEAN_ANOMALY":"224.5932","EPOCH":"2023-04-11T21:20:15.233280","OBJECT_NAME":"STARLINK-1499","REF_FRAME":"TEME","PERIAPSIS":"503.224","COUNTRY_CODE":"US","TLE_LINE2":"2 45762  53.0573 294.5707 0003727 135.5363 224.5932 15.20017688156487","DECAY_DATE":null,"LAUNCH_DATE":"2020-06-13","ECCENTRICITY":"0.00037270","PERIOD":"94.736","MEAN_MOTION":"15.20017688","FILE":"3885919","TLE_LINE1":"1 45762U 20038AJ  23101.88906520  .00010550  00000-0  49752-3 0  9993","CLASSIFICATION_TYPE":"U","SITE":"AFETR","SEMIMAJOR_AXIS":"6883.924","MEAN_MOTION_DOT":"0.00010550","APOAPSIS":"508.355","OBJECT_TYPE":"PAYLOAD","MEAN_MOTION_DDOT":"0.0000000000000","REV_AT_EPOCH":"15648","EPHEMERIS_TYPE":"0","MEAN_ELEMENT_THEORY":"SGP4","NORAD_CAT_ID":"45762","BSTAR":"0.00049752000000","CENTER_NAME":"EARTH","GP_ID":"229943225","OBJECT_ID":"2020-038AJ","ARG_OF_PERICENTER":"135.5363"},{"CLASSIFICATION_TYPE":"U","FILE":"3885783","MEAN_MOTION":"15.06403574","TLE_LINE1":"1 45764U 20038AL  23101.54459481  .00018655  00000-0  12678-2 0  9997","SITE":"AFETR","DECAY_DATE":null,"LAUNCH_DATE":"2020-06-13","ECCENTRICITY":"0.00005570","PERIOD":"95.592","OBJECT_NAME":"STARLINK-1502","REF_FRAME":"TEME","TLE_LINE2":"2 45764  53.0541 309.2578 0000557 140.7534 219.3496 15.06403574156248","COUNTRY_CODE":"US","PERIAPSIS":"546.817","INCLINATION":"53.0541","ELEMENT_SET_NO":"999","RCS_SIZE":"LARGE","TIME_SYSTEM":"UTC","MEAN_ANOMALY":"219.3496","RA_OF_ASC_NODE":"309.2578","EPOCH":"2023-04-11T13:04:12.991584","CENTER_NAME":"EARTH","BSTAR":"0.00126780000000","OBJECT_ID":"2020-038AL","ARG_OF_PERICENTER":"140.7534","GP_ID":"229912382","REV_AT_EPOCH":"15624","NORAD_CAT_ID":"45764","MEAN_ELEMENT_THEORY":"SGP4","EPHEMERIS_TYPE":"0","APOAPSIS":"547.588","OBJECT_TYPE":"PAYLOAD","MEAN_MOTION_DDOT":"0.0000000000000","SEMIMAJOR_AXIS":"6925.338","MEAN_MOTION_DOT":"0.00018655"},{"PERIOD":"94.453","ECCENTRICITY":"0.00004600","DECAY_DATE":null,"LAUNCH_DATE":"2020-06-13","SITE":"AFETR","TLE_LINE1":"1 45766U 20038AN  23101.91667824  .00022812  00000-0  92498-3 0  9991","MEAN_MOTION":"15.24560610","FILE":"3885919","CLASSIFICATION_TYPE":"U","EPOCH":"2023-04-11T22:00:00.999936","TIME_SYSTEM":"UTC","RA_OF_ASC_NODE":"306.3389","MEAN_ANOMALY":"154.7219","RCS_SIZE":"LARGE","ELEMENT_SET_NO":"999","INCLINATION":"53.0514","PERIAPSIS":"491.791","COUNTRY_CODE":"US","TLE_LINE2":"2 45766  53.0514 306.3389 0000460  51.6277 154.7219 15.24560610  1301","REF_FRAME":"TEME","OBJECT_NAME":"STARLINK-1509","MEAN_ELEMENT_THEORY":"SGP4","EPHEMERIS_TYPE":"0","NORAD_CAT_ID":"45766","REV_AT_EPOCH":"130","GP_ID":"229942241","ARG_OF_PERICENTER":"51.6277","OBJECT_ID":"2020-038AN","BSTAR":"0.00092498000000","CENTER_NAME":"EARTH","MEAN_MOTION_DOT":"0.00022812","SEMIMAJOR_AXIS":"6870.242","MEAN_MOTION_DDOT":"0.0000000000000","OBJECT_TYPE":"PAYLOAD","APOAPSIS":"492.423"}];
